NORAD_CAT_ID,OBJECT_NAME,OBJECT_TYPE,EPOCH,MEAN_MOTION,ECCENTRICITY,INCLINATION,RA_OF_ASC_NODE,ARG_OF_PERICENTER,MEAN_ANOMALY,BSTAR,MEAN_MOTION_DOT,MEAN_MOTION_DDOT,TLE_LINE0,TLE_LINE1,TLE_LINE2,SEMIMAJOR_AXIS,PERIOD,APOGEE,PERIGEE,DECAYED
52633.0,STARLINK-3994,PAYLOAD,2024-06-18 19:32:06,15.08835916,0.000117,53.2153,212.2555,87.334,272.7786,0.00011028,1.468e-05,0.0,0 STARLINK-3994,1 52633U 22052AM  24170.81396764  .00001468  00000-0  11028-3 0  9992,2 52633  53.2153 212.2555 0001170  87.3340 272.7786 15.08835916116065,6917.893,95.438,540.567,538.948,0.0
52633.0,STARLINK-3994,PAYLOAD,2024-06-19 09:50:36,15.08826053,0.000126,53.2158,209.5801,90.8776,269.2361,3.6373e-06,-2.3e-06,0.0,0 STARLINK-3994,1 52633U 22052AM  24171.41014024 -.00000230  00000-0  36373-5 0  9994,2 52633  53.2158 209.5801 0001260  90.8776 269.2361 15.08826053116528,6917.923,95.438,540.66,538.916,0.0
52633.0,STARLINK-3994,PAYLOAD,2024-06-20 11:16:45,15.08842908,0.0001227,53.2168,204.8228,97.1345,262.9787,6.1715e-05,6.95e-06,0.0,0 STARLINK-3994,1 52633U 22052AM  24172.46997091  .00000695  00000-0  61715-4 0  9995,2 52633  53.2168 204.8228 0001227  97.1345 262.9787 15.08842908116311,6917.872,95.437,540.585,538.888,0.0
52633.0,STARLINK-3994,PAYLOAD,2024-06-21 11:07:32,15.08840954,0.000134,53.2159,200.3607,88.5732,271.5413,0.00012262,1.664e-05,0.0,0 STARLINK-3994,1 52633U 22052AM  24173.46357223  .00001664  00000-0  12262-3 0  9992,2 52633  53.2159 200.3607 0001340  88.5732 271.5413 15.08840954116460,6917.877,95.437,540.669,538.815,0.0
52633.0,STARLINK-3994,PAYLOAD,2024-06-22 06:12:10,15.08839856,0.0001531,53.2167,196.7856,76.6086,283.5076,1.9765e-05,2.7e-07,0.0,0 STARLINK-3994,1 52633U 22052AM  24174.25845689  .00000027  00000-0  19765-4 0  9996,2 52633  53.2167 196.7856 0001531  76.6086 283.5076 15.08839856116956,6917.881,95.438,540.805,538.687,0.0
52633.0,STARLINK-3994,PAYLOAD,2024-06-23 07:38:20,15.08843387,0.0001477,53.2164,192.0334,83.116,277.0,6.4945e-05,7.46e-06,0.0,0 STARLINK-3994,1 52633U 22052AM  24175.31829252  .00000746  00000-0  64945-4 0  9990,2 52633  53.2164 192.0334 0001477  83.1160 277.0000 15.08843387117116,6917.87,95.437,540.757,538.713,0.0
52633.0,STARLINK-3994,PAYLOAD,2024-06-24 07:29:07,15.08844197,0.0001351,53.2158,187.574,89.0293,271.0854,9.2945e-05,1.192e-05,0.0,0 STARLINK-3994,1 52633U 22052AM  24176.31188928  .00001192  00000-0  92945-4 0  9996,2 52633  53.2158 187.5740 0001351  89.0293 271.0854 15.08844197116897,6917.868,95.437,540.667,538.798,0.0
52633.0,STARLINK-3994,PAYLOAD,2024-06-25 04:09:08,15.08839545,0.0001398,53.216,183.7086,90.497,269.6182,2.2427e-05,6.9e-07,0.0,0 STARLINK-3994,1 52633U 22052AM  24177.17301342  .00000069  00000-0  22427-4 0  9998,2 52633  53.2160 183.7086 0001398  90.4970 269.6182 15.08839545117394,6917.882,95.438,540.714,538.78,0.0
52633.0,STARLINK-3994,PAYLOAD,2024-06-25 07:19:54,15.08839356,0.0001387,53.216,183.1138,90.8919,269.2232,1.7113e-05,-1.6e-07,0.0,0 STARLINK-3994,1 52633U 22052AM  24177.30549350 -.00000016  00000-0  17113-4 0  9995,2 52633  53.2160 183.1138 0001387  90.8919 269.2232 15.08839356117045,6917.882,95.438,540.707,538.788,0.0
52633.0,STARLINK-3994,PAYLOAD,2024-06-26 07:10:41,15.08841254,0.000139,53.2161,178.6549,93.8119,266.3032,3.2619e-05,2.31e-06,0.0,0 STARLINK-3994,1 52633U 22052AM  24178.29909140  .00000231  00000-0  32619-4 0  9997,2 52633  53.2161 178.6549 0001390  93.8119 266.3032 15.08841254117563,6917.877,95.437,540.703,538.78,0.0
52633.0,STARLINK-3994,PAYLOAD,2024-06-27 03:50:42,15.08834561,0.0001386,53.2157,174.7879,98.7102,261.4047,3.4161e-05,2.56e-06,0.0,0 STARLINK-3994,1 52633U 22052AM  24179.16021749  .00000256  00000-0  34161-4 0  9995,2 52633  53.2157 174.7879 0001386  98.7102 261.4047 15.08834561117691,6917.897,95.438,540.721,538.803,0.0
52633.0,STARLINK-3994,PAYLOAD,2024-06-27 16:33:47,15.0883576,0.0001354,53.2156,172.4082,89.8886,270.2262,3.4911e-05,2.68e-06,0.0,0 STARLINK-3994,1 52633U 22052AM  24179.69013865  .00000268  00000-0  34911-4 0  9999,2 52633  53.2156 172.4082 0001354  89.8886 270.2262 15.08835760117404,6917.893,95.438,540.695,538.822,0.0
52633.0,STARLINK-3994,PAYLOAD,2024-06-28 06:52:15,15.08841374,0.0001321,53.215,169.7314,88.7854,271.3289,6.3995e-05,7.31e-06,0.0,0 STARLINK-3994,1 52633U 22052AM  24180.28629546  .00000731  00000-0  63995-4 0  9994,2 52633  53.2150 169.7314 0001321  88.7854 271.3289 15.08841374117861,6917.876,95.437,540.655,538.827,0.0
52633.0,STARLINK-3994,PAYLOAD,2024-06-29 08:18:25,15.08844866,0.0001318,53.2149,164.973,87.891,272.2233,0.00013694,1.892e-05,0.0,0 STARLINK-3994,1 52633U 22052AM  24181.34613319  .00001892  00000-0  13694-3 0  9992,2 52633  53.2149 164.9730 0001318  87.8910 272.2233 15.08844866118024,6917.866,95.437,540.642,538.819,0.0
52633.0,STARLINK-3994,PAYLOAD,2024-06-29 16:15:22,15.08836215,0.0001214,53.2143,163.4831,86.554,273.5591,2.6541e-05,1.35e-06,0.0,0 STARLINK-3994,1 52633U 22052AM  24181.67734044  .00000135  00000-0  26541-4 0  9992,2 52633  53.2143 163.4831 0001214  86.5540 273.5591 15.08836215118079,6917.892,95.438,540.597,538.917,0.0
52633.0,STARLINK-3994,PAYLOAD,2024-06-30 08:09:13,15.0883722,0.0001365,53.2153,160.5085,97.8983,262.2164,-2.3898e-06,-3.26e-06,0.0,0 STARLINK-3994,1 52633U 22052AM  24182.33974348 -.00000326  00000-0 -23898-5 0  9996,2 52633  53.2153 160.5085 0001365  97.8983 262.2164 15.08837220117800,6917.889,95.438,540.698,538.81,0.0
52633.0,STARLINK-3994,PAYLOAD,2024-06-30 16:06:09,15.08841617,0.0001319,53.2153,159.0245,101.4116,258.7024,7.5336e-05,9.11e-06,0.0,0 STARLINK-3994,1 52633U 22052AM  24182.67093896  .00000911  00000-0  75336-4 0  9994,2 52633  53.2153 159.0245 0001319 101.4116 258.7024 15.08841617117855,6917.875,95.437,540.653,538.828,0.0
52633.0,STARLINK-3994,PAYLOAD,2024-07-01 04:49:13,15.08852264,0.0001324,53.2154,156.645,101.1426,258.9714,9.9695e-05,1.3e-05,0.0,0 STARLINK-3994,1 52633U 22052AM  24183.20085163  .00001300  00000-0  99695-4 0  9999,2 52633  53.2154 156.6450 0001324 101.1426 258.9714 15.08852264118303,6917.843,95.437,540.624,538.792,0.0
52633.0,STARLINK-3994,PAYLOAD,2024-07-01 07:59:59,15.08853564,0.0001313,53.2155,156.0502,105.9458,254.1679,0.00011583,1.557e-05,0.0,0 STARLINK-3994,1 52633U 22052AM  24183.33332979  .00001557  00000-0  11583-3 0  9996,2 52633  53.2155 156.0502 0001313 105.9458 254.1679 15.08853564117953,6917.839,95.437,540.612,538.796,0.0
52633.0,STARLINK-3994,PAYLOAD,2024-07-02 04:40:01,15.08806099,0.0001626,53.2155,152.182,110.5268,249.5899,0.0005092,7.818e-05,0.0,0 STARLINK-3994,1 52633U 22052AM  24184.19446724  .00007818  00000-0  50920-3 0  9999,2 52633  53.2155 152.1820 0001626 110.5268 249.5899 15.08806099118450,6917.984,95.44,540.974,538.724,0.0
52633.0,STARLINK-3994,PAYLOAD,2024-07-02 07:50:47,15.0884011,0.0001336,53.2157,151.5909,96.7883,263.3262,8.2109e-05,1.019e-05,0.0,0 STARLINK-3994,1 52633U 22052AM  24184.32694019  .00001019  00000-0  82109-4 0  9998,2 52633  53.2157 151.5909 0001336  96.7883 263.3262 15.08840110118471,6917.88,95.438,540.669,538.821,0.0
52633.0,STARLINK-3994,PAYLOAD,2024-07-03 14:03:07,15.08843142,0.0001344,53.2161,145.9405,97.2513,262.8632,-1.3201e-05,-4.98e-06,0.0,0 STARLINK-3994,1 52633U 22052AM  24185.58550008 -.00000498  00000-0 -13201-4 0  9995,2 52633  53.2161 145.9405 0001344  97.2513 262.8632 15.08843142118663,6917.871,95.437,540.666,538.806,0.0
52633.0,STARLINK-3994,PAYLOAD,2024-07-04 04:21:35,15.08836442,0.0001299,53.216,143.2662,92.953,267.1611,3.9604e-05,3.42e-06,0.0,0 STARLINK-3994,1 52633U 22052AM  24186.18166527  .00000342  00000-0  39604-4 0  9992,2 52633  53.2160 143.2662 0001299  92.9530 267.1611 15.08836442118758,6917.891,95.438,540.655,538.858,0.0
52633.0,STARLINK-3994,PAYLOAD,2024-07-04 13:53:54,15.0883849,0.0001354,53.2166,141.482,89.7704,270.3443,6.3768e-05,7.27e-06,0.0,0 STARLINK-3994,1 52633U 22052AM  24186.57910407  .00000727  00000-0  63768-4 0  9994,2 52633  53.2166 141.4820 0001354  89.7704 270.3443 15.08838490118449,6917.885,95.438,540.687,538.813,0.0
52633.0,STARLINK-3994,PAYLOAD,2024-07-05 07:23:08,15.08846374,0.0001393,53.2168,138.2103,88.5977,271.5174,0.00011145,1.487e-05,0.0,0 STARLINK-3994,1 52633U 22052AM  24187.30773948  .00001487  00000-0  11145-3 0  9998,2 52633  53.2168 138.2103 0001393  88.5977 271.5174 15.08846374118928,6917.861,95.437,540.69,538.762,0.0
52633.0,STARLINK-3994,PAYLOAD,2024-07-06 04:03:10,15.08841573,0.0001433,53.2156,134.3423,76.2356,283.8795,3.1026e-05,2.06e-06,0.0,0 STARLINK-3994,1 52633U 22052AM  24188.16886640  .00000206  00000-0  31026-4 0  9996,2 52633  53.2156 134.3423 0001433  76.2356 283.8795 15.08841573119053,6917.876,95.437,540.732,538.749,0.0
52633.0,STARLINK-3994,PAYLOAD,2024-07-06 13:35:28,15.08838996,0.0001358,53.216,132.5587,83.0796,277.0351,1.1293e-05,-1.08e-06,0.0,0 STARLINK-3994,1 52633U 22052AM  24188.56630760 -.00000108  00000-0  11293-4 0  9996,2 52633  53.2160 132.5587 0001358  83.0796 277.0351 15.08838996118742,6917.883,95.438,540.688,538.809,0.0
52633.0,STARLINK-3994,PAYLOAD,2024-07-06 19:57:01,15.08837308,0.0001567,53.2169,131.3732,85.4216,274.6956,4.3381e-05,4.02e-06,0.0,0 STARLINK-3994,1 52633U 22052AM  24188.83126959  .00000402  00000-0  43381-4 0  9995,2 52633  53.2169 131.3732 0001567  85.4216 274.6956 15.08837308118789,6917.889,95.438,540.838,538.67,0.0
52633.0,STARLINK-3994,PAYLOAD,2024-07-07 03:53:57,15.08844497,0.0001312,53.2153,129.8855,92.7148,267.3994,1.0919e-05,-1.14e-06,0.0,0 STARLINK-3994,1 52633U 22052AM  24189.16246552 -.00000114  00000-0  10919-4 0  9996,2 52633  53.2153 129.8855 0001312  92.7148 267.3994 15.08844497118837,6917.867,95.437,540.639,538.824,0.0
52633.0,STARLINK-3994,PAYLOAD,2024-07-08 02:09:21,15.08840541,0.0001428,53.2153,125.7226,89.3811,270.7344,4.3949e-05,4.12e-06,0.0,0 STARLINK-3994,1 52633U 22052AM  24190.08982831  .00000412  00000-0  43949-4 0  9995,2 52633  53.2153 125.7226 0001428  89.3811 270.7344 15.08840541119341,6917.879,95.438,540.732,538.756,0.0
